start=new Date('2023-06-07T00:00:00.000Z').valueOf();
sats=[{"OBJECT_TYPE":"PAYLOAD","MEAN_MOTION":"15.06387178","MEAN_MOTION_DOT":"-0.00000086","COUNTRY_CODE":"US","GP_ID":"233354670","PERIAPSIS":"546.360","ELEMENT_SET_NO":"999","FILE":"3926571","SEMIMAJOR_AXIS":"6925.388","OBJECT_NAME":"STARLINK-1166","MEAN_ELEMENT_THEORY":"SGP4","REF_FRAME":"TEME","INCLINATION":"53.0552","EPHEMERIS_TYPE":"0","REV_AT_EPOCH":"18472","DECAY_DATE":null,"EPOCH":"2023-06-06T22:39:28.983744","CENTER_NAME":"EARTH","SITE":"AFETR","BSTAR":"0.00001309500000","ECCENTRICITY":"0.00012890","PERIOD":"95.593","TIME_SYSTEM":"UTC","TLE_LINE1":"1 45060U 20006S   23157.94408546 -.00000086  00000-0  13095-4 0  9998","MEAN_MOTION_DDOT":"0.0000000000000","LAUNCH_DATE":"2020-01-29","CLASSIFICATION_TYPE":"U","RA_OF_ASC_NODE":"126.0747","RCS_SIZE":"LARGE","MEAN_ANOMALY":"265.8858","TLE_LINE2":"2 45060  53.0552 126.0747 0001289  94.2278 265.8858 15.06387178184726","NORAD_CAT_ID":"45060","APOAPSIS":"548.146","ARG_OF_PERICENTER":"94.2278","OBJECT_ID":"2020-006S"},{"RA_OF_ASC_NODE":"127.2344","MEAN_ANOMALY":"274.6289","RCS_SIZE":"LARGE","TLE_LINE2":"2 45061  53.0541 127.2344 0001100  85.4826 274.6289 15.06391433184684","NORAD_CAT_ID":"45061","OBJECT_ID":"2020-006T","ARG_OF_PERICENTER":"85.4826","APOAPSIS":"548.002","CENTER_NAME":"EARTH","EPOCH":"2023-06-06T16:27:56.396160","DECAY_DATE":null,"ECCENTRICITY":"0.00011000","SITE":"AFETR","BSTAR":"0.00002565800000","TLE_LINE1":"1 45061U 20006T   23157.68606940  .00000101  00000-0  25658-4 0  9993","MEAN_MOTION_DDOT":"0.0000000000000","TIME_SYSTEM":"UTC","PERIOD":"95.593","CLASSIFICATION_TYPE":"U","LAUNCH_DATE":"2020-01-29","MEAN_ELEMENT_THEORY":"SGP4","REF_FRAME":"TEME","REV_AT_EPOCH":"18468","EPHEMERIS_TYPE":"0","INCLINATION":"53.0541","MEAN_MOTION":"15.06391433","OBJECT_TYPE":"PAYLOAD","MEAN_MOTION_DOT":"0.00000101","COUNTRY_CODE":"US","GP_ID":"233354922","SEMIMAJOR_AXIS":"6925.375","OBJECT_NAME":"STARLINK-1169","FILE":"3926571","ELEMENT_SET_NO":"999","PERIAPSIS":"546.478"},{"REF_FRAME":"TEME","MEAN_ELEMENT_THEORY":"SGP4","INCLINATION":"53.0544","REV_AT_EPOCH":"18472","EPHEMERIS_TYPE":"0","COUNTRY_CODE":"US","MEAN_MOTION_DOT":"-0.00000381","OBJECT_TYPE":"PAYLOAD","MEAN_MOTION":"15.06388550","FILE":"3926571","ELEMENT_SET_NO":"999","PERIAPSIS":"546.274","SEMIMAJOR_AXIS":"6925.384","OBJECT_NAME":"STARLINK-1171","GP_ID":"233355173","RCS_SIZE":"LARGE","MEAN_ANOMALY":"257.0141","RA_OF_ASC_NODE":"126.1055","ARG_OF_PERICENTER":"103.1005","APOAPSIS":"548.224","OBJECT_ID":"2020-006U","TLE_LINE2":"2 45062  53.0544 126.1055 0001408 103.1005 257.0141 15.06388550184726","NORAD_CAT_ID":"45062","ECCENTRICITY":"0.00014080","SITE":"AFETR","BSTAR":"-0.00000670950000","EPOCH":"2023-06-06T22:28:51.961728","DECAY_DATE":null,"CENTER_NAME":"EARTH","LAUNCH_DATE":"2020-01-29","CLASSIFICATION_TYPE":"U","PERIOD":"95.593","TLE_LINE1":"1 45062U 20006U   23157.93671252 -.00000381  00000-0 -67095-5 0  9994","MEAN_MOTION_DDOT":"0.0000000000000","TIME_SYSTEM":"UTC"},{"INCLINATION":"53.0535","EPHEMERIS_TYPE":"0","REV_AT_EPOCH":"18494","MEAN_ELEMENT_THEORY":"SGP4","REF_FRAME":"TEME","GP_ID":"233353921","PERIAPSIS":"546.431","ELEMENT_SET_NO":"999","FILE":"3926571","SEMIMAJOR_AXIS":"6925.370","OBJECT_NAME":"STARLINK-1133","OBJECT_TYPE":"PAYLOAD","MEAN_MOTION":"15.06392881","COUNTRY_CODE":"US","MEAN_MOTION_DOT":"0.00002984","TLE_LINE2":"2 45064  53.0535 107.8295 0001162  94.1291 265.9831 15.06392881184943","NORAD_CAT_ID":"45064","APOAPSIS":"548.040","ARG_OF_PERICENTER":"94.1291","OBJECT_ID":"2020-006W","RA_OF_ASC_NODE":"107.8295","RCS_SIZE":"LARGE","MEAN_ANOMALY":"265.9831","PERIOD":"95.593","TIME_SYSTEM":"UTC","MEAN_MOTION_DDOT":"0.0000000000000","TLE_LINE1":"1 45064U 20006W   23157.55152788  .00002984  00000-0  21920-3 0  9996","LAUNCH_DATE":"2020-01-29","CLASSIFICATION_TYPE":"U","EPOCH":"2023-06-06T13:14:12.008832","DECAY_DATE":null,"CENTER_NAME":"EARTH","SITE":"AFETR","BSTAR":"0.00021920000000","ECCENTRICITY":"0.00011620"},{"INCLINATION":"53.0538","REV_AT_EPOCH":"18500","EPHEMERIS_TYPE":"0","REF_FRAME":"TEME","MEAN_ELEMENT_THEORY":"SGP4","ELEMENT_SET_NO":"999","FILE":"3926571","PERIAPSIS":"535.594","SEMIMAJOR_AXIS":"6916.831","OBJECT_NAME":"STARLINK-1139","GP_ID":"233354171","COUNTRY_CODE":"US","MEAN_MOTION_DOT":"0.00015373","OBJECT_TYPE":"PAYLOAD","MEAN_MOTION":"15.09183345","ARG_OF_PERICENTER":"58.1480","APOAPSIS":"541.798","OBJECT_ID":"2020-006X","TLE_LINE2":"2 45065  53.0538 105.6118 0004485  58.1480 301.9946 15.09183345185000","NORAD_CAT_ID":"45065","RCS_SIZE":"LARGE","MEAN_ANOMALY":"301.9946","RA_OF_ASC_NODE":"105.6118","LAUNCH_DATE":"2020-01-29","CLASSIFICATION_TYPE":"U","PERIOD":"95.416","MEAN_MOTION_DDOT":"0.0000000000000","TLE_LINE1":"1 45065U 20006X   23157.88368096  .00015373  00000-0  97257-3 0  9996","TIME_SYSTEM":"UTC","ECCENTRICITY":"0.00044850","SITE":"AFETR","BSTAR":"0.00097257000000","DECAY_DATE":null,"EPOCH":"2023-06-06T21:12:30.034944","CENTER_NAME":"EARTH"},{"TLE_LINE1":"1 45066U 20006Y   23157.86115086  .00001515  00000-0  12060-3 0  9996","MEAN_MOTION_DDOT":"0.0000000000000","TIME_SYSTEM":"UTC","PERIOD":"95.592","CLASSIFICATION_TYPE":"U","LAUNCH_DATE":"2020-01-29","CENTER_NAME":"EARTH","EPOCH":"2023-06-06T20:40:03.434304","DECAY_DATE":null,"SITE":"AFETR","BSTAR":"0.00012060000000","ECCENTRICITY":"0.00013830","TLE_LINE2":"2 45066  53.0536 106.4458 0001383  97.5589 262.5557 15.06394698184984","NORAD_CAT_ID":"45066","OBJECT_ID":"2020-006Y","ARG_OF_PERICENTER":"97.5589","APOAPSIS":"548.188","RA_OF_ASC_NODE":"106.4458","MEAN_ANOMALY":"262.5557","RCS_SIZE":"LARGE","GP_ID":"233355422","SEMIMAJOR_AXIS":"6925.365","OBJECT_NAME":"STARLINK-1145","FILE":"3926571","ELEMENT_SET_NO":"999","PERIAPSIS":"546.272","MEAN_MOTION":"15.06394698","OBJECT_TYPE":"PAYLOAD","MEAN_MOTION_DOT":"0.00001515","COUNTRY_CODE":"US","REV_AT_EPOCH":"18498","EPHEMERIS_TYPE":"0","INCLINATION":"53.0536","MEAN_ELEMENT_THEORY":"SGP4","REF_FRAME":"TEME"},{"TIME_SYSTEM":"UTC","TLE_LINE1":"1 45067U 20006Z   23157.87589251  .00001287  00000-0  10530-3 0  9993","MEAN_MOTION_DDOT":"0.0000000000000","PERIOD":"95.592","CLASSIFICATION_TYPE":"U","LAUNCH_DATE":"2020-01-29","CENTER_NAME":"EARTH","DECAY_DATE":null,"EPOCH":"2023-06-06T21:01:17.112864","ECCENTRICITY":"0.00011940","SITE":"AFETR","BSTAR":"0.00010530000000","TLE_LINE2":"2 45067  53.0547 106.3767 0001194  96.9219 263.1906 15.06395050184991","NORAD_CAT_ID":"45067","OBJECT_ID":"2020-006Z","APOAPSIS":"548.056","ARG_OF_PERICENTER":"96.9219","RA_OF_ASC_NODE":"106.3767","MEAN_ANOMALY":"263.1906","RCS_SIZE":"LARGE","GP_ID":"233355673","OBJECT_NAME":"STARLINK-1150","SEMIMAJOR_AXIS":"6925.364","PERIAPSIS":"546.402","ELEMENT_SET_NO":"999","FILE":"3926571","MEAN_MOTION":"15.06395050","OBJECT_TYPE":"PAYLOAD","COUNTRY_CODE":"US","MEAN_MOTION_DOT":"0.00001287","EPHEMERIS_TYPE":"0","REV_AT_EPOCH":"18499","INCLINATION":"53.0547","MEAN_ELEMENT_THEORY":"SGP4","REF_FRAME":"TEME"},{"MEAN_ANOMALY":"261.9055","RCS_SIZE":"LARGE","RA_OF_ASC_NODE":"107.5541","OBJECT_ID":"2020-006AA","ARG_OF_PERICENTER":"98.2040","APOAPSIS":"547.821","NORAD_CAT_ID":"45068","TLE_LINE2":"2 45068  53.0547 107.5541 0000937  98.2040 261.9055 15.06413683184945","BSTAR":"0.00018237000000","SITE":"AFETR","ECCENTRICITY":"0.00009370","CENTER_NAME":"EARTH","DECAY_DATE":null,"EPOCH":"2023-06-06T14:00:33.696576","CLASSIFICATION_TYPE":"U","LAUNCH_DATE":"2020-01-29","TLE_LINE1":"1 45068U 20006AA  23157.58372334  .00002437  00000-0  18237-3 0  9994","MEAN_MOTION_DDOT":"0.0000000000000","TIME_SYSTEM":"UTC","PERIOD":"95.591","REF_FRAME":"TEME","MEAN_ELEMENT_THEORY":"SGP4","REV_AT_EPOCH":"18494","EPHEMERIS_TYPE":"0","INCLINATION":"53.0547","MEAN_MOTION_DOT":"0.00002437","COUNTRY_CODE":"US","MEAN_MOTION":"15.06413683","OBJECT_TYPE":"PAYLOAD","OBJECT_NAME":"STARLINK-1161","SEMIMAJOR_AXIS":"6925.307","FILE":"3926571","ELEMENT_SET_NO":"999","PERIAPSIS":"546.523","GP_ID":"233354421"},{"CLASSIFICATION_TYPE":"U","LAUNCH_DATE":"2020-01-29","TIME_SYSTEM":"UTC","TLE_LINE1":"1 45071U 20006AD  23157.90907107  .00001558  00000-0  12349-3 0  9997","MEAN_MOTION_DDOT":"0.0000000000000","PERIOD":"95.593","ECCENTRICITY":"0.00012790","SITE":"AFETR","BSTAR":"0.00012349000000","CENTER_NAME":"EARTH","EPOCH":"2023-06-06T21:49:03.740448","DECAY_DATE":null,"OBJECT_ID":"2020-006AD","APOAPSIS":"548.130","ARG_OF_PERICENTER":"87.8772","TLE_LINE2":"2 45071  53.0550 106.2355 0001279  87.8772 272.2363 15.06390050184992","NORAD_CAT_ID":"45071","MEAN_ANOMALY":"272.2363","RCS_SIZE":"LARGE","RA_OF_ASC_NODE":"106.2355","OBJECT_NAME":"STARLINK-1167","SEMIMAJOR_AXIS":"6925.379","PERIAPSIS":"546.358","FILE":"3926571","ELEMENT_SET_NO":"999","GP_ID":"233354671","COUNTRY_CODE":"US","MEAN_MOTION_DOT":"0.00001558","MEAN_MOTION":"15.06390050","OBJECT_TYPE":"PAYLOAD","EPHEMERIS_TYPE":"0","REV_AT_EPOCH":"18499","INCLINATION":"53.0550","REF_FRAME":"TEME","MEAN_ELEMENT_THEORY":"SGP4"},{"LAUNCH_DATE":"2020-01-29","CLASSIFICATION_TYPE":"U","PERIOD":"95.593","TIME_SYSTEM":"UTC","MEAN_MOTION_DDOT":"0.0000000000000","TLE_LINE1":"1 45072U 20006AE  23157.84641186  .00001453  00000-0  11644-3 0  9994","SITE":"AFETR","ECCENTRICITY":"0.00012970","BSTAR":"0.00011644000000","EPOCH":"2023-06-06T20:18:49.984704","DECAY_DATE":null,"CENTER_NAME":"EARTH","APOAPSIS":"548.133","ARG_OF_PERICENTER":"92.1583","OBJECT_ID":"2020-006AE","NORAD_CAT_ID":"45072","TLE_LINE2":"2 45072  53.0539 106.5086 0001297  92.1583 267.9554 15.06393207184982","RCS_SIZE":"LARGE","MEAN_ANOMALY":"267.9554","RA_OF_ASC_NODE":"106.5086","PERIAPSIS":"546.336","ELEMENT_SET_NO":"999","FILE":"3926571","SEMIMAJOR_AXIS":"6925.369","OBJECT_NAME":"STARLINK-1168","GP_ID":"233354923","COUNTRY_CODE":"US","MEAN_MOTION_DOT":"0.00001453","OBJECT_TYPE":"PAYLOAD","MEAN_MOTION":"15.06393207","INCLINATION":"53.0539","EPHEMERIS_TYPE":"0","REV_AT_EPOCH":"18498","REF_FRAME":"TEME","MEAN_ELEMENT_THEORY":"SGP4"}];
